[
  {
    "name": "PLEIADES NEO 3",
    "line1": "1 48268U 21034A   26035.82198557 -.00000102  00000+0 -62935-5 0  9993",
    "line2": "2 48268  97.8939 112.4879 0001320  87.5723 272.5640 14.81665870258057",
    "catNr": 48268
  },
  {
    "name": "PLEIADES NEO 4",
    "line1": "1 49070U 21073E   26035.85573476  .00000326  00000+0  48033-4 0  9996",
    "line2": "2 49070  97.8939 112.5175 0001368  90.9701 269.1668 14.81674341241771",
    "catNr": 49070
  }
]